name,source,collection_date,satellite_number,classification,launch_year,launch_number,launch_piece,epoch_year,epoch_day,inclination_deg,right_ascension_deg,eccentricity,argument_of_perigee_deg,mean_anomaly_deg,mean_motion,orbital_period_minutes,approximate_altitude_km,mean_motion_derivative,mean_motion_second_derivative,drag_term,element_set_number,revolution_number,line1,line2,category
STARLINK-32596,celestrak_active,2025-07-29T17:08:40.713211,62316,U,2024,239,R,2025,210.2640585,53.1571,151.9105,0.0001221,93.0881,267.026,15.30206144,94.10496785980753,0,0.00039217,0.0,0.01329,999,3517,1 62316U 24239R   25210.26405850  .00039217  00000+0  13290-2 0  9996,2 62316  53.1571 151.9105 0001221  93.0881 267.0260 15.30206144 35174,important
STARLINK-32519,celestrak_active,2025-07-29T17:08:40.713217,62317,U,2024,239,S,2025,210.1151194,53.1572,144.5899,0.0001107,92.3652,267.748,15.39628643,93.52904718595833,0,0.00019914,0.0,0.0050639000000000005,999,3526,1 62317U 24239S   25210.11511940  .00019914  00000+0  50639-3 0  9990,2 62317  53.1572 144.5899 0001107  92.3652 267.7480 15.39628643 35267,important
STARLINK-32527,celestrak_active,2025-07-29T17:08:40.713222,62319,U,2024,239,U,2025,210.52285216,53.157,142.8682,0.0001341,81.5028,278.6129,15.39654361,93.5274849002295,0,0.00040433,0.0,0.010143,999,3532,1 62319U 24239U   25210.52285216  .00040433  00000+0  10143-2 0  9996,2 62319  53.1570 142.8682 0001341  81.5028 278.6129 15.39654361 35329,important
STARLINK-32481,celestrak_active,2025-07-29T17:08:40.713228,62320,U,2024,239,V,2025,210.54142444,53.1584,142.986,0.0001121,89.2274,270.8859,15.39649263,93.5277945831745,0,0.00026446,0.0,0.0066820000000000004,999,3532,1 62320U 24239V   25210.54142444  .00026446  00000+0  66820-3 0  9997,2 62320  53.1584 142.9860 0001121  89.2274 270.8859 15.39649263 35328,important
STARLINK-32645,celestrak_active,2025-07-29T17:08:40.713234,62321,U,2024,239,W,2025,210.23078497,53.1577,144.6029,0.0001447,89.4264,270.6906,15.39640019,93.52835612413372,0,0.00055594,0.0,0.013888000000000001,999,3527,1 62321U 24239W   25210.23078497  .00055594  00000+0  13888-2 0  9991,2 62321  53.1577 144.6029 0001447  89.4264 270.6906 15.39640019 35274,important
STARLINK-32654,celestrak_active,2025-07-29T17:08:40.713239,62322,U,2024,239,X,2025,210.56108428,53.1604,150.2043,0.0001242,91.0865,269.0279,15.30217869,94.10424679859754,0,0.00031199,0.0,0.010605,999,3522,1 62322U 24239X   25210.56108428  .00031199  00000+0  10605-2 0  9995,2 62322  53.1604 150.2043 0001242  91.0865 269.0279 15.30217869 35228,important
STARLINK-11444 [DTC],celestrak_active,2025-07-29T17:08:40.713534,62409,U,2024,249,A,2025,209.91840113,43.0013,76.7972,0.000136,255.3455,104.7262,15.70935834,91.66510616371872,0,0.00171892,0.0,0.013103,999,3428,1 62409U 24249A   25209.91840113  .00171892  00000+0  13103-2 0  9994,2 62409  43.0013  76.7972 0001360 255.3455 104.7262 15.70935834 34285,important
STARLINK-11493 [DTC],celestrak_active,2025-07-29T17:08:40.713539,62410,U,2024,249,B,2025,209.98729091,42.9995,76.4561,0.0002286,273.3438,86.7168,15.70900647,91.66715939356284,0,0.00047575,0.0,0.0037117,999,3429,1 62410U 24249B   25209.98729091  .00047575  00000+0  37117-3 0  9996,2 62410  42.9995  76.4561 0002286 273.3438  86.7168 15.70900647 34293,important
STARLINK-11453 [DTC],celestrak_active,2025-07-29T17:08:40.713545,62411,U,2024,249,C,2025,210.33693944,43.0011,73.8995,0.0001817,270.1954,89.8705,15.70875826,91.66860780248585,0,0.00292566,0.0,0.022008999999999997,999,3435,1 62411U 24249C   25210.33693944  .00292566  00000+0  22009-2 0  9990,2 62411  43.0011  73.8995 0001817 270.1954  89.8705 15.70875826 34352,important
STARLINK-11462 [DTC],celestrak_active,2025-07-29T17:08:40.713550,62412,U,2024,249,D,2025,210.53299324,42.9996,72.7926,0.0001856,260.433,99.6328,15.7087387,91.66872194519348,0,0.00211436,0.0,0.016073999999999998,999,3411,1 62412U 24249D   25210.53299324  .00211436  00000+0  16074-2 0  9999,2 62412  42.9996  72.7926 0001856 260.4330  99.6328 15.70873870 34119,important
STARLINK-11441 [DTC],celestrak_active,2025-07-29T17:08:40.713555,62413,U,2024,249,E,2025,210.32100157,42.9995,73.7694,0.000153,262.9301,97.1393,15.70932463,91.6653028641372,0,0.00199063,0.0,0.015121,999,3435,1 62413U 24249E   25210.32100157  .00199063  00000+0  15121-2 0  9995,2 62413  42.9995  73.7694 0001530 262.9301  97.1393 15.70932463 34351,important
STARLINK-11445 [DTC],celestrak_active,2025-07-29T17:08:40.713562,62414,U,2024,249,F,2025,210.52237683,42.9975,72.7076,0.0001004,254.4738,105.6019,15.70871123,91.6688822473185,0,0.0018224,0.0,0.01391,999,3438,1 62414U 24249F   25210.52237683  .00182240  00000+0  13910-2 0  9996,2 62414  42.9975  72.7076 0001004 254.4738 105.6019 15.70871123 34387,important
STARLINK-11355 [DTC],celestrak_active,2025-07-29T17:08:40.713567,62415,U,2024,249,G,2025,210.57624723,43.0018,72.2339,0.0002614,261.9943,98.0628,15.70866437,91.66915570174602,0,0.00196851,0.0,0.014998000000000001,999,3439,1 62415U 24249G   25210.57624723  .00196851  00000+0  14998-2 0  9997,2 62415  43.0018  72.2339 0002614 261.9943  98.0628 15.70866437 34398,important
STARLINK-11446 [DTC],celestrak_active,2025-07-29T17:08:40.713574,62416,U,2024,249,H,2025,209.99247163,43.0001,75.6026,0.0003331,260.3487,99.7004,15.70930594,91.66541192207502,0,0.00177727,0.0,0.013538,999,3430,1 62416U 24249H   25209.99247163  .00177727  00000+0  13538-2 0  9991,2 62416  43.0001  75.6026 0003331 260.3487  99.7004 15.70930594 34307,important
STARLINK-11428 [DTC],celestrak_active,2025-07-29T17:08:40.713579,62417,U,2024,249,J,2025,210.03495836,43.0006,75.9509,0.0001885,267.5165,92.5487,15.70887462,91.66792878763202,0,0.00199867,0.0,0.015209,999,3430,1 62417U 24249J   25210.03495836  .00199867  00000+0  15209-2 0  9997,2 62417  43.0006  75.9509 0001885 267.5165  92.5487 15.70887462 34307,important
STARLINK-11447 [DTC],celestrak_active,2025-07-29T17:08:40.713586,62418,U,2024,249,K,2025,209.99778015,42.9998,75.6416,0.0002112,273.783,86.2796,15.70871822,91.66884145688114,0,0.00176117,0.0,0.013453,999,3430,1 62418U 24249K   25209.99778015  .00176117  00000+0  13453-2 0  9996,2 62418  42.9998  75.6416 0002112 273.7830  86.2796 15.70871822 34308,important
STARLINK-11439 [DTC],celestrak_active,2025-07-29T17:08:40.713591,62419,U,2024,249,L,2025,210.5170658,42.9994,72.6612,0.0001748,261.6861,98.3808,15.70863398,91.66933304534224,0,0.00184787,0.0,0.014104000000000002,999,3438,1 62419U 24249L   25210.51706580  .00184787  00000+0  14104-2 0  9991,2 62419  42.9994  72.6612 0001748 261.6861  98.3808 15.70863398 34389,important
STARLINK-11434 [DTC],celestrak_active,2025-07-29T17:08:40.713596,62420,U,2024,249,M,2025,209.97667383,43.0025,76.365,0.0002424,265.1439,94.9152,15.70873274,91.6687567249298,0,0.0025778,0.0,0.01948,999,3429,1 62420U 24249M   25209.97667383  .00257780  00000+0  19480-2 0  9994,2 62420  43.0025  76.3650 0002424 265.1439  94.9152 15.70873274 34291,important
STARLINK-11461 [DTC],celestrak_active,2025-07-29T17:08:40.713602,62421,U,2024,249,N,2025,210.34755201,42.9996,73.9806,0.0003139,275.1963,84.8546,15.7092965,91.66546700547666,0,0.00211614,0.0,0.016048,999,3435,1 62421U 24249N   25210.34755201  .00211614  00000+0  16048-2 0  9998,2 62421  42.9996  73.9806 0003139 275.1963  84.8546 15.70929650 34352,important
STARLINK-32692,celestrak_active,2025-07-29T17:08:40.713607,62422,U,2024,249,P,2025,210.54025796,43.0019,142.2626,0.0001361,275.3146,84.755,15.27578675,94.26683047928775,0,0.00016414,0.0,0.006046800000000001,999,3359,1 62422U 24249P   25210.54025796  .00016414  00000+0  60468-3 0  9997,2 62422  43.0019 142.2626 0001361 275.3146  84.7550 15.27578675 33599,important
STARLINK-32680,celestrak_active,2025-07-29T17:08:40.713612,62423,U,2024,249,Q,2025,210.14620299,42.9992,136.6937,0.0001264,269.7186,90.3521,15.27594537,94.26585164594628,0,0.00019707,0.0,0.0072343,999,3362,1 62423U 24249Q   25210.14620299  .00019707  00000+0  72343-3 0  9996,2 62423  42.9992 136.6937 0001264 269.7186  90.3521 15.27594537 33623,important
STARLINK-32638,celestrak_active,2025-07-29T17:08:40.713618,62424,U,2024,249,R,2025,210.09621448,43.0021,148.4355,0.0001105,261.8149,98.2578,15.27606889,94.26508942641983,0,0.0003232,0.0,0.011779,999,3348,1 62424U 24249R   25210.09621448  .00032320  00000+0  11779-2 0  9999,2 62424  43.0021 148.4355 0001105 261.8149  98.2578 15.27606889 33487,important
STARLINK-32283,celestrak_active,2025-07-29T17:08:40.713623,62425,U,2024,249,S,2025,210.06074111,42.9989,133.45,0.000118,284.0799,75.9921,15.275955,94.26579222051912,0,0.00023552,0.0,0.008622600000000001,999,3365,1 62425U 24249S   25210.06074111  .00023552  00000+0  86226-3 0  9993,2 62425  42.9989 133.4500 0001180 284.0799  75.9921 15.27595500 33656,important
STARLINK-32676,celestrak_active,2025-07-29T17:08:40.713630,62426,U,2024,249,T,2025,210.49755878,43.0014,135.0316,4.35e-05,276.7229,83.3573,15.27608474,94.2649916198357,0,0.00030038,0.0,0.010957,999,3367,1 62426U 24249T   25210.49755878  .00030038  00000+0  10957-2 0  9991,2 62426  43.0014 135.0316 0000435 276.7229  83.3573 15.27608474 33672,important
STARLINK-32659,celestrak_active,2025-07-29T17:08:40.713636,62427,U,2024,249,U,2025,210.48341488,42.9946,134.9277,0.0001015,268.1467,91.9269,15.27585756,94.266393513033,0,0.00023359,0.0,0.008555300000000002,999,3367,1 62427U 24249U   25210.48341488  .00023359  00000+0  85553-3 0  9992,2 62427  42.9946 134.9277 0001015 268.1467  91.9269 15.27585756 33677,important
STARLINK-32614,celestrak_active,2025-07-29T17:08:40.713641,62428,U,2024,249,V,2025,210.53641364,43.0017,142.2469,0.000135,294.3272,65.7438,15.27600082,94.26550947252437,0,0.00021226,0.0,0.0077815,999,3334,1 62428U 24249V   25210.53641364  .00021226  00000+0  77815-3 0  9998,2 62428  43.0017 142.2469 0001350 294.3272  65.7438 15.27600082 33342,important
